$$SOE
2460721.500000000, A.D. 2025-Feb-15 00:00:00.0000, 1.594411352138859E+08, -3.972540418063807E+08, -2.112297460019905E+08,
2460728.500000000, A.D. 2025-Feb-22 00:00:00.0000, 1.686376095897451E+08, -3.934460215253274E+08, -2.127444840106308E+08,
2460735.500000000, A.D. 2025-Mar-01 00:00:00.0000, 1.777591402232653E+08, -3.894631983501897E+08, -2.141646664031708E+08,
2460742.500000000, A.D. 2025-Mar-08 00:00:00.0000, 1.868020109120945E+08, -3.853080753345215E+08, -2.154900654817371E+08,
2460749.500000000, A.D. 2025-Mar-15 00:00:00.0000, 1.957625725662497E+08, -3.809832086425916E+08, -2.167204972457112E+08,
2460756.500000000, A.D. 2025-Mar-22 00:00:00.0000, 2.046372415848337E+08, -3.764912049951066E+08, -2.178558204967817E+08,
2460763.500000000, A.D. 2025-Mar-29 00:00:00.0000, 2.134224995356708E+08, -3.718347214020139E+08, -2.188959362434415E+08,
2460770.500000000, A.D. 2025-Apr-05 00:00:00.0000, 2.221148944662654E+08, -3.670164640451316E+08, -2.198407871801280E+08,
2460777.500000000, A.D. 2025-Apr-12 00:00:00.0000, 2.307110419229254E+08, -3.620391862079652E+08, -2.206903570579050E+08,
2460784.500000000, A.D. 2025-Apr-19 00:00:00.0000, 2.392076254933555E+08, -3.569056861350110E+08, -2.214446700032857E+08,
2460791.500000000, A.D. 2025-Apr-26 00:00:00.0000, 2.476013971468649E+08, -3.516188050242026E+08, -2.221037898282706E+08,
2460798.500000000, A.D. 2025-May-03 00:00:00.0000, 2.558891774883049E+08, -3.461814251338043E+08, -2.226678193419329E+08,
2460805.500000000, A.D. 2025-May-10 00:00:00.0000, 2.640678559566485E+08, -3.405964679954577E+08, -2.231368996667658E+08,
2460812.500000000, A.D. 2025-May-17 00:00:00.0000, 2.721343910071726E+08, -3.348668927745661E+08, -2.235112095675607E+08,
2460819.500000000, A.D. 2025-May-24 00:00:00.0000, 2.800858104535232E+08, -3.289956948324054E+08, -2.237909648141507E+08,
2460826.500000000, A.D. 2025-May-31 00:00:00.0000, 2.879192123900437E+08, -3.229859041790496E+08, -2.239764175920964E+08,
2460833.500000000, A.D. 2025-Jun-07 00:00:00.0000, 2.956317662958595E+08, -3.168405826129947E+08, -2.240678558274776E+08,
2460840.500000000, A.D. 2025-Jun-14 00:00:00.0000, 3.032207119576897E+08, -3.105628202151132E+08, -2.240656022641309E+08,
2460847.500000000, A.D. 2025-Jun-21 00:00:00.0000, 3.106833574291132E+08, -3.041557344676850E+08, -2.239700136716050E+08,
2460854.500000000, A.D. 2025-Jun-28 00:00:00.0000, 3.180170791564912E+08, -2.976224702321442E+08, -2.237814803259090E+08,
2460861.500000000, A.D. 2025-Jul-05 00:00:00.0000, 3.252193227578233E+08, -2.909661984279264E+08, -2.235004254482936E+08,
2460868.500000000, A.D. 2025-Jul-12 00:00:00.0000, 3.322876032665028E+08, -2.841901142172949E+08, -2.231273045598822E+08,
2460875.500000000, A.D. 2025-Jul-19 00:00:00.0000, 3.392195050321525E+08, -2.772974352710732E+08, -2.226626048179139E+08,
2460882.500000000, A.D. 2025-Jul-26 00:00:00.0000, 3.460126814906858E+08, -2.702914001719844E+08, -2.221068443587112E+08,
2460889.500000000, A.D. 2025-Aug-02 00:00:00.0000, 3.526648548707674E+08, -2.631752669341457E+08, -2.214605716524345E+08,
2460896.500000000, A.D. 2025-Aug-09 00:00:00.0000, 3.591738158614953E+08, -2.559523116533299E+08, -2.207243648732402E+08,
2460903.500000000, A.D. 2025-Aug-16 00:00:00.0000, 3.655374233193705E+08, -2.486258273506950E+08, -2.198988312967271E+08,
2460910.500000000, A.D. 2025-Aug-23 00:00:00.0000, 3.717536043083882E+08, -2.411991229922594E+08, -2.189846067494738E+08,
2460917.500000000, A.D. 2025-Aug-30 00:00:00.0000, 3.778203548040635E+08, -2.336755219685090E+08, -2.179823550821711E+08,
2460924.500000000, A.D. 2025-Sep-06 00:00:00.0000, 3.837357396456775E+08, -2.260583590330436E+08, -2.168927674550742E+08,
2460931.500000000, A.D. 2025-Sep-13 00:00:00.0000, 3.894978900676226E+08, -2.183509781830158E+08, -2.157165614857799E+08,
2460938.500000000, A.D. 2025-Sep-20 00:00:00.0000, 3.951050020837438E+08, -2.105567331247291E+08, -2.144544806932448E+08,
2460945.500000000, A.D. 2025-Sep-27 00:00:00.0000, 4.005553367845331E+08, -2.026789872110673E+08, -2.131072940804536E+08,
2460952.500000000, A.D. 2025-Oct-04 00:00:00.0000, 4.058472205323588E+08, -1.947211123104042E+08, -2.116757956270883E+08,
2460959.500000000, A.D. 2025-Oct-11 00:00:00.0000, 4.109790446827005E+08, -1.866864875492344E+08, -2.101608037354386E+08,
2460966.500000000, A.D. 2025-Oct-18 00:00:00.0000, 4.159492651164092E+08, -1.785784982021088E+08, -2.085631606782974E+08,
2460973.500000000, A.D. 2025-Oct-25 00:00:00.0000, 4.207564017237613E+08, -1.704005347169004E+08, -2.068837320609804E+08,
2460980.500000000, A.D. 2025-Nov-01 00:00:00.0000, 4.253990378809063E+08, -1.621559918588790E+08, -2.051234063000709E+08,
2460987.500000000, A.D. 2025-Nov-08 00:00:00.0000, 4.298758199542608E+08, -1.538482680039791E+08, -2.032830941248223E+08,
2460994.500000000, A.D. 2025-Nov-15 00:00:00.0000, 4.341854569813762E+08, -1.454807646387070E+08, -2.013637281195364E+08,
2461001.500000000, A.D. 2025-Nov-22 00:00:00.0000, 4.383267209313860E+08, -1.370568858449848E+08, -1.993662623255628E+08,
2461008.500000000, A.D. 2025-Nov-29 00:00:00.0000, 4.422984473928588E+08, -1.285800366328621E+08, -1.972916717961702E+08,
2461015.500000000, A.D. 2025-Dec-06 00:00:00.0000, 4.460995344136329E+08, -1.200536202558689E+08, -1.951409519074794E+08,
2461022.500000000, A.D. 2025-Dec-13 00:00:00.0000, 4.497289399273544E+08, -1.114810378791353E+08, -1.929151177411643E+08,
2461029.500000000, A.D. 2025-Dec-20 00:00:00.0000, 4.531856812597124E+08, -1.028656895759659E+08, -1.906152037750539E+08,
2461036.500000000, A.D. 2025-Dec-27 00:00:00.0000, 4.564688356410594E+08, -9.421097405958608E+07, -1.882422635710124E+08,
2461043.500000000, A.D. 2026-Jan-03 00:00:00.0000, 4.595775402673175E+08, -8.552028776392446E+07, -1.857973693766916E+08,
2461050.500000000, A.D. 2026-Jan-10 00:00:00.0000, 4.625109920199726E+08, -7.679702395077384E+07, -1.832816117067994E+08,
2461057.500000000, A.D. 2026-Jan-17 00:00:00.0000, 4.652684470786253E+08, -6.804457193322928E+07, -1.806960989326834E+08,
2461064.500000000, A.D. 2026-Jan-24 00:00:00.0000, 4.678492205049434E+08, -5.926631639103889E+07, -1.780419568854807E+08,
2461071.500000000, A.D. 2026-Jan-31 00:00:00.0000, 4.702526858223708E+08, -5.046563678370021E+07, -1.753203284755400E+08,
2461078.500000000, A.D. 2026-Feb-07 00:00:00.0000, 4.724782746538290E+08, -4.164590691738266E+07, -1.725323733382675E+08,
2461085.500000000, A.D. 2026-Feb-14 00:00:00.0000, 4.745254766705598E+08, -3.281049467999855E+07, -1.696792675302681E+08,
2461092.500000000, A.D. 2026-Feb-21 00:00:00.0000, 4.763938402388331E+08, -2.396276136601610E+07, -1.667622032629575E+08,
2461099.500000000, A.D. 2026-Feb-28 00:00:00.0000, 4.780829726792092E+08, -1.510605943517334E+07, -1.637823884788327E+08,
2461106.500000000, A.D. 2026-Mar-07 00:00:00.0000, 4.795925380808164E+08, -6.243730653174832E+06, -1.607410462409317E+08,
2461113.500000000, A.D. 2026-Mar-14 00:00:00.0000, 4.809222554467528E+08, 2.620893053715996E+06, -1.576394143805469E+08,
2461120.500000000, A.D. 2026-Mar-21 00:00:00.0000, 4.820718989531212E+08, 1.148448892970100E+07, -1.544787453293304E+08,
2461127.500000000, A.D. 2026-Mar-28 00:00:00.0000, 4.830412983130639E+08, 2.034374393646464E+07, -1.512603058675119E+08,
2461134.500000000, A.D. 2026-Apr-04 00:00:00.0000, 4.838303386434540E+08, 2.919535555137409E+07, -1.479853768121165E+08,
2461141.500000000, A.D. 2026-Apr-11 00:00:00.0000, 4.844389601091718E+08, 3.803603245722142E+07, -1.446552526997233E+08,
2461148.500000000, A.D. 2026-Apr-18 00:00:00.0000, 4.848671575048503E+08, 4.686249511708981E+07, -1.412712414785470E+08,
2461155.500000000, A.D. 2026-Apr-25 00:00:00.0000, 4.851149798203400E+08, 5.567147624951416E+07, -1.378346642122722E+08,
2461162.500000000, A.D. 2026-May-02 00:00:00.0000, 4.851825298210419E+08, 6.445972117495543E+07, -1.343468548002862E+08,
2461169.500000000, A.D. 2026-May-09 00:00:00.0000, 4.850699637682194E+08, 7.322398796797951E+07, -1.308091597306237E+08,
2461176.500000000, A.D. 2026-May-16 00:00:00.0000, 4.847774916573806E+08, 8.196104755386578E+07, -1.272229378883703E+08,
2461183.500000000, A.D. 2026-May-23 00:00:00.0000, 4.843053780258033E+08, 9.066768477275275E+07, -1.235895603398591E+08,
2461190.500000000, A.D. 2026-May-30 00:00:00.0000, 4.836539412506409E+08, 9.934070073278661E+07, -1.199104098754694E+08,
2461197.500000000, A.D. 2026-Jun-06 00:00:00.0000, 4.828235510220267E+08, 1.079769131799531E+08, -1.161868805499030E+08,
2461204.500000000, A.D. 2026-Jun-13 00:00:00.0000, 4.818146276575456E+08, 1.165731550832912E+08, -1.124203775398901E+08,
2461211.500000000, A.D. 2026-Jun-20 00:00:00.0000, 4.806276427559547E+08, 1.251262743621098E+08, -1.086123170337145E+08,
2461218.500000000, A.D. 2026-Jun-27 00:00:00.0000, 4.792631194914378E+08, 1.336331344164917E+08, -1.047641260244131E+08,
2461225.500000000, A.D. 2026-Jul-04 00:00:00.0000, 4.777216325484065E+08, 1.420906146871592E+08, -1.008772420700447E+08,
2461232.500000000, A.D. 2026-Jul-11 00:00:00.0000, 4.760038079508471E+08, 1.504956111136099E+08, -9.695311305515134E+07,
2461239.500000000, A.D. 2026-Jul-18 00:00:00.0000, 4.741103228789007E+08, 1.588450365170585E+08, -9.299319695982212E+07,
2461246.500000000, A.D. 2026-Jul-25 00:00:00.0000, 4.720419054970788E+08, 1.671358209117496E+08, -8.899896163834548E+07,
2461253.500000000, A.D. 2026-Aug-01 00:00:00.0000, 4.697993348422562E+08, 1.753649116973977E+08, -8.497188461574653E+07,
2461260.500000000, A.D. 2026-Aug-08 00:00:00.0000, 4.673834409864869E+08, 1.835292736976199E+08, -8.091345292478348E+07,
2461267.500000000, A.D. 2026-Aug-15 00:00:00.0000, 4.647951058894445E+08, 1.916258894950308E+08, -7.682516298443736E+07,
2461274.500000000, A.D. 2026-Aug-22 00:00:00.0000, 4.620352641779988E+08, 1.996517612847958E+08, -7.270852034972663E+07,
2461281.500000000, A.D. 2026-Aug-29 00:00:00.0000, 4.591049015632057E+08, 2.076039128760250E+08, -6.856503923474234E+07,
2461288.500000000, A.D. 2026-Sep-05 00:00:00.0000, 4.560050530299562E+08, 2.154793889744715E+08, -6.439624223915431E+07,
$$EOE